[
    {
        "Altitude(m)": 715451.0517701439,
        "Argument of Periapsis(deg)": 0.0022780242373254137,
        "Eccentricity": 0.0,
        "Inclination(deg)": 45.0,
        "Latitude(deg)": -39.28406638320623,
        "Longitude(deg)": -94.58275250813756,
        "Mean Anomaly(deg)": 296.8521433294962,
        "RAAN(deg)": 59.99784961170835,
        "Satellite Name": "Constellation 1 282",
        "Satellite Number": 282,
        "Semi-Major Axis(m)": 7083131.272910544,
        "Time(s)": 38
    },
    {
        "Altitude(m)": 715440.7138952919,
        "Argument of Periapsis(deg)": 0.002337972243570819,
        "Eccentricity": 0.0,
        "Inclination(deg)": 45.0,
        "Latitude(deg)": -39.259078976930155,
        "Longitude(deg)": -94.51571863843509,
        "Mean Anomaly(deg)": 296.9128444697461,
        "RAAN(deg)": 59.99779302254279,
        "Satellite Name": "Constellation 1 282",
        "Satellite Number": 282,
        "Semi-Major Axis(m)": 7083131.272910544,
        "Time(s)": 39
    },
    {
        "Altitude(m)": 715430.3585633984,
        "Argument of Periapsis(deg)": 0.0023979202498162246,
        "Eccentricity": 0.0,
        "Inclination(deg)": 45.0,
        "Latitude(deg)": -39.23404801262343,
        "Longitude(deg)": -94.44873516845848,
        "Mean Anomaly(deg)": 296.973545609996,
        "RAAN(deg)": 59.99773643337722,
        "Satellite Name": "Constellation 1 282",
        "Satellite Number": 282,
        "Semi-Major Axis(m)": 7083131.272910544,
        "Time(s)": 40
    },
    {
        "Altitude(m)": 715419.9858121625,
        "Argument of Periapsis(deg)": 0.00245786825606163,
        "Eccentricity": 0.0,
        "Inclination(deg)": 45.0,
        "Latitude(deg)": -39.20897355888055,
        "Longitude(deg)": -94.38180210490029,
        "Mean Anomaly(deg)": 297.03424675024587,
        "RAAN(deg)": 59.997679844211646,
        "Satellite Name": "Constellation 1 282",
        "Satellite Number": 282,
        "Semi-Major Axis(m)": 7083131.272910544,
        "Time(s)": 41
    },
    {
        "Altitude(m)": 715409.5956793152,
        "Argument of Periapsis(deg)": 0.002517816262307036,
        "Eccentricity": 0.0,
        "Inclination(deg)": 45.0,
        "Latitude(deg)": -39.18385568428545,
        "Longitude(deg)": -94.31491945404777,
        "Mean Anomaly(deg)": 297.0949478904958,
        "RAAN(deg)": 59.99762325504607,
        "Satellite Name": "Constellation 1 282",
        "Satellite Number": 282,
        "Semi-Major Axis(m)": 7083131.272910544,
        "Time(s)": 42
    },
    {
        "Altitude(m)": 715399.1882026693,
        "Argument of Periapsis(deg)": 0.0025777642685524413,
        "Eccentricity": 0.0,
        "Inclination(deg)": 45.0,
        "Latitude(deg)": -39.15869445741063,
        "Longitude(deg)": -94.2480872217836,
        "Mean Anomaly(deg)": 297.15564903074574,
        "RAAN(deg)": 59.997566665880505,
        "Satellite Name": "Constellation 1 282",
        "Satellite Number": 282,
        "Semi-Major Axis(m)": 7083131.272910544,
        "Time(s)": 43
    },
    {
        "Altitude(m)": 715388.7634200846,
        "Argument of Periapsis(deg)": 0.002637712274797847,
        "Eccentricity": 0.0,
        "Inclination(deg)": 45.0,
        "Latitude(deg)": -39.133489946816944,
        "Longitude(deg)": -94.18130558168525,
        "Mean Anomaly(deg)": 297.2163501709956,
        "RAAN(deg)": 59.997510076714946,
        "Satellite Name": "Constellation 1 282",
        "Satellite Number": 282,
        "Semi-Major Axis(m)": 7083131.272910544,
        "Time(s)": 44
    },
    {
        "Altitude(m)": 715378.3213694943,
        "Argument of Periapsis(deg)": 0.0026976602810432526,
        "Eccentricity": 0.0,
        "Inclination(deg)": 45.0,
        "Latitude(deg)": -39.10824222105296,
        "Longitude(deg)": -94.11457420263655,
        "Mean Anomaly(deg)": 297.27705131124543,
        "RAAN(deg)": 59.99745348754937,
        "Satellite Name": "Constellation 1 282",
        "Satellite Number": 282,
        "Semi-Major Axis(m)": 7083131.272910544,
        "Time(s)": 45
    },
    {
        "Altitude(m)": 715367.8620888757,
        "Argument of Periapsis(deg)": 0.0027576082872886585,
        "Eccentricity": 0.0,
        "Inclination(deg)": 45.0,
        "Latitude(deg)": -39.082951348654426,
        "Longitude(deg)": -94.04789325741348,
        "Mean Anomaly(deg)": 297.33775245149536,
        "RAAN(deg)": 59.9973968983838,
        "Satellite Name": "Constellation 1 282",
        "Satellite Number": 282,
        "Semi-Major Axis(m)": 7083131.272910544,
        "Time(s)": 46
    },
    {
        "Altitude(m)": 715357.385616275,
        "Argument of Periapsis(deg)": 0.0028175562935340644,
        "Eccentricity": 0.0,
        "Inclination(deg)": 45.0,
        "Latitude(deg)": -39.0576173981435,
        "Longitude(deg)": -93.98126275029554,
        "Mean Anomaly(deg)": 297.3984535917453,
        "RAAN(deg)": 59.99734030921823,
        "Satellite Name": "Constellation 1 282",
        "Satellite Number": 282,
        "Semi-Major Axis(m)": 7083131.272910544,
        "Time(s)": 47
    },
    {
        "Altitude(m)": 715346.8919898015,
        "Argument of Periapsis(deg)": 0.00287750429977947,
        "Eccentricity": 0.0,
        "Inclination(deg)": 45.0,
        "Latitude(deg)": -39.03224043802875,
        "Longitude(deg)": -93.91468268516567,
        "Mean Anomaly(deg)": 297.45915473199517,
        "RAAN(deg)": 59.99728372005266,
        "Satellite Name": "Constellation 1 282",
        "Satellite Number": 282,
        "Semi-Major Axis(m)": 7083131.272910544,
        "Time(s)": 48
    },
    {
        "Altitude(m)": 715336.3812476207,
        "Argument of Periapsis(deg)": 0.002937452306024875,
        "Eccentricity": 0.0,
        "Inclination(deg)": 45.0,
        "Latitude(deg)": -39.00682053680418,
        "Longitude(deg)": -93.8481530655106,
        "Mean Anomaly(deg)": 297.51985587224505,
        "RAAN(deg)": 59.99722713088708,
        "Satellite Name": "Constellation 1 282",
        "Satellite Number": 282,
        "Semi-Major Axis(m)": 7083131.272910544,
        "Time(s)": 49
    },
    {
        "Altitude(m)": 715325.853427947,
        "Argument of Periapsis(deg)": 0.0029974003122702807,
        "Eccentricity": 0.0,
        "Inclination(deg)": 45.0,
        "Latitude(deg)": -38.98135776294889,
        "Longitude(deg)": -93.78167389442252,
        "Mean Anomaly(deg)": 297.580557012495,
        "RAAN(deg)": 59.99717054172151,
        "Satellite Name": "Constellation 1 282",
        "Satellite Number": 282,
        "Semi-Major Axis(m)": 7083131.272910544,
        "Time(s)": 50
    },
    {
        "Altitude(m)": 715315.3085690748,
        "Argument of Periapsis(deg)": 0.0030573483185156866,
        "Eccentricity": 0.0,
        "Inclination(deg)": 45.0,
        "Latitude(deg)": -38.95585218492658,
        "Longitude(deg)": -93.71524517460098,
        "Mean Anomaly(deg)": 297.6412581527449,
        "RAAN(deg)": 59.99711395255596,
        "Satellite Name": "Constellation 1 282",
        "Satellite Number": 282,
        "Semi-Major Axis(m)": 7083131.272910544,
        "Time(s)": 51
    },
    {
        "Altitude(m)": 715304.7467093416,
        "Argument of Periapsis(deg)": 0.003117296324761092,
        "Eccentricity": 0.0,
        "Inclination(deg)": 45.0,
        "Latitude(deg)": -38.9303038711849,
        "Longitude(deg)": -93.64886707645088,
        "Mean Anomaly(deg)": 297.7019592929948,
        "RAAN(deg)": 59.99705736339038,
        "Satellite Name": "Constellation 1 282",
        "Satellite Number": 282,
        "Semi-Major Axis(m)": 7083131.272910544,
        "Time(s)": 52
    },
    {
        "Altitude(m)": 715294.1678871465,
        "Argument of Periapsis(deg)": 0.0031772443310064975,
        "Eccentricity": 0.0,
        "Inclination(deg)": 45.0,
        "Latitude(deg)": -38.904712890155295,
        "Longitude(deg)": -93.58253926569546,
        "Mean Anomaly(deg)": 297.76266043324466,
        "RAAN(deg)": 59.99700077422481,
        "Satellite Name": "Constellation 1 282",
        "Satellite Number": 282,
        "Semi-Major Axis(m)": 7083131.272910544,
        "Time(s)": 53
    },
    {
        "Altitude(m)": 715283.5721409497,
        "Argument of Periapsis(deg)": 0.0032371923372519038,
        "Eccentricity": 0.0,
        "Inclination(deg)": 45.0,
        "Latitude(deg)": -38.87907931025195,
        "Longitude(deg)": -93.51626191196064,
        "Mean Anomaly(deg)": 297.82336157349454,
        "RAAN(deg)": 59.996944185059235,
        "Satellite Name": "Constellation 1 282",
        "Satellite Number": 282,
        "Semi-Major Axis(m)": 7083131.272910544,
        "Time(s)": 54
    },
    {
        "Altitude(m)": 715272.9595092753,
        "Argument of Periapsis(deg)": 0.0032971403434973088,
        "Eccentricity": 0.0,
        "Inclination(deg)": 45.0,
        "Latitude(deg)": -38.853403199871714,
        "Longitude(deg)": -93.45003501638776,
        "Mean Anomaly(deg)": 297.88406271374447,
        "RAAN(deg)": 59.996887595893675,
        "Satellite Name": "Constellation 1 282",
        "Satellite Number": 282,
        "Semi-Major Axis(m)": 7083131.272910544,
        "Time(s)": 55
    },
    {
        "Altitude(m)": 715262.3300306909,
        "Argument of Periapsis(deg)": 0.0033570883497427146,
        "Eccentricity": 0.0,
        "Inclination(deg)": 45.0,
        "Latitude(deg)": -38.82768462739355,
        "Longitude(deg)": -93.38385857973282,
        "Mean Anomaly(deg)": 297.9447638539944,
        "RAAN(deg)": 59.9968310067281,
        "Satellite Name": "Constellation 1 282",
        "Satellite Number": 282,
        "Semi-Major Axis(m)": 7083131.272910544,
        "Time(s)": 56
    }
]